{"type": "FeatureCollection", "features": [ {"type": "Feature", "properties": {"norad_id": 17070, "name": "POLAR BEAR", "group": "nnss", "lat": -79.89529595876414, "lon": 6.2453633006915945, "alt_km": 1001.6012599592705, "timestamp": "2025-12-04T13:52:00.711272+00:00", "meta": {"OBJECT_NAME": "POLAR BEAR", "OBJECT_ID": "1986-088A", "EPOCH": "2025-12-04T02:42:26.523936", "MEAN_MOTION": 13.75248152, "ECCENTRICITY": 0.00403525, "INCLINATION": 89.618, "RA_OF_ASC_NODE": 184.1187, "ARG_OF_PERICENTER": 144.3671, "MEAN_ANOMALY": 334.4415, "EPHEMERIS_TYPE": 0, "CLASSIFICATION_TYPE": "U", "NORAD_CAT_ID": 17070, "ELEMENT_SET_NO": 999, "REV_AT_EPOCH": 95860, "BSTAR": 0.0001702677, "MEAN_MOTION_DOT": 1.76e-06, "MEAN_MOTION_DDOT": 0}, "tle": {"line1": "1 17070U 86088A   25338.11280699  .00000176  00000+0  17027-3 0  9995", "line2": "2 17070  89.6180 184.1187 0040352 144.3671 334.4415 13.75248152958609"}}, "geometry": {"type": "Point", "coordinates": [6.2453633006915945, -79.89529595876414]}}, {"type": "Feature", "properties": {"norad_id": 18361, "name": "OSCAR 27", "group": "nnss", "lat": -31.67543582279429, "lon": 79.19791294295838, "alt_km": 1084.2817614983387, "timestamp": "2025-12-04T13:52:00.711282+00:00", "meta": {"OBJECT_NAME": "OSCAR 27", "OBJECT_ID": "1987-080A", "EPOCH": "2025-12-04T06:52:55.454016", "MEAN_MOTION": 13.44903963, "ECCENTRICITY": 0.01024196, "INCLINATION": 90.3742, "RA_OF_ASC_NODE": 78.956, "ARG_OF_PERICENTER": 248.3486, "MEAN_ANOMALY": 110.6729, "EPHEMERIS_TYPE": 0, "CLASSIFICATION_TYPE": "U", "NORAD_CAT_ID": 18361, "ELEMENT_SET_NO": 999, "REV_AT_EPOCH": 87443, "BSTAR": 0.00026493883, "MEAN_MOTION_DOT": 1.68e-06, "MEAN_MOTION_DDOT": 0}, "tle": {"line1": "1 18361U 87080A   25338.28675294  .00000168  00000+0  26494-3 0  9998", "line2": "2 18361  90.3742  78.9560 0102419 248.3486 110.6729 13.44903963874437"}}, "geometry": {"type": "Point", "coordinates": [79.19791294295838, -31.67543582279429]}}, {"type": "Feature", "properties": {"norad_id": 18362, "name": "OSCAR 29", "group": "nnss", "lat": -6.02904130062101, "lon": 79.46488165234834, "alt_km": 1086.4276745290845, "timestamp": "2025-12-04T13:52:00.711292+00:00", "meta": {"OBJECT_NAME": "OSCAR 29", "OBJECT_ID": "1987-080B", "EPOCH": "2025-12-04T07:01:08.237280", "MEAN_MOTION": 13.44445999, "ECCENTRICITY": 0.01037142, "INCLINATION": 90.3755, "RA_OF_ASC_NODE": 79.4145, "ARG_OF_PERICENTER": 271.7522, "MEAN_ANOMALY": 140.9753, "EPHEMERIS_TYPE": 0, "CLASSIFICATION_TYPE": "U", "NORAD_CAT_ID": 18362, "ELEMENT_SET_NO": 999, "REV_AT_EPOCH": 87396, "BSTAR": 0.0002287377, "MEAN_MOTION_DOT": 1.45e-06, "MEAN_MOTION_DDOT": 0}, "tle": {"line1": "1 18362U 87080B   25338.29245645  .00000145  00000+0  22874-3 0  9996", "line2": "2 18362  90.3755  79.4145 0103714 271.7522 140.9753 13.44445999873967"}}, "geometry": {"type": "Point", "coordinates": [79.46488165234834, -6.02904130062101]}}, {"type": "Feature", "properties": {"norad_id": 19070, "name": "OSCAR 23", "group": "nnss", "lat": -78.96978509088501, "lon": -165.5145943391832, "alt_km": 1081.8016640935384, "timestamp": "2025-12-04T13:52:00.711302+00:00", "meta": {"OBJECT_NAME": "OSCAR 23", "OBJECT_ID": "1988-033A", "EPOCH": "2025-12-04T03:51:34.326144", "MEAN_MOTION": 13.27785161, "ECCENTRICITY": 0.01888138, "INCLINATION": 90.3222, "RA_OF_ASC_NODE": 16.1265, "ARG_OF_PERICENTER": 203.814, "MEAN_ANOMALY": 221.3732, "EPHEMERIS_TYPE": 0, "CLASSIFICATION_TYPE": "U", "NORAD_CAT_ID": 19070, "ELEMENT_SET_NO": 999, "REV_AT_EPOCH": 82139, "BSTAR": 0.00022567432, "MEAN_MOTION_DOT": 1.2e-06, "MEAN_MOTION_DDOT": 0}, "tle": {"line1": "1 19070U 88033A   25338.16081396  .00000120  00000+0  22567-3 0  9991", "line2": "2 19070  90.3222  16.1265 0188813 203.8140 221.3732 13.27785161821399"}}, "geometry": {"type": "Point", "coordinates": [-165.5145943391832, -78.96978509088501]}}, {"type": "Feature", "properties": {"norad_id": 19071, "name": "OSCAR 32", "group": "nnss", "lat": 2.720218895836738, "lon": 16.25557561080881, "alt_km": 1297.4276745439665, "timestamp": "2025-12-04T13:52:00.711312+00:00", "meta": {"OBJECT_NAME": "OSCAR 32", "OBJECT_ID": "1988-033B", "EPOCH": "2025-12-04T03:16:50.049696", "MEAN_MOTION": 13.27952281, "ECCENTRICITY": 0.01876287, "INCLINATION": 90.3227, "RA_OF_ASC_NODE": 16.2571, "ARG_OF_PERICENTER": 190.7186, "MEAN_ANOMALY": 224.3743, "EPHEMERIS_TYPE": 0, "CLASSIFICATION_TYPE": "U", "NORAD_CAT_ID": 19071, "ELEMENT_SET_NO": 999, "REV_AT_EPOCH": 82151, "BSTAR": 0.00022431763, "MEAN_MOTION_DOT": 1.2e-06, "MEAN_MOTION_DDOT": 0}, "tle": {"line1": "1 19071U 88033B   25338.13669039  .00000120  00000+0  22432-3 0  9996", "line2": "2 19071  90.3227  16.2571 0187628 190.7186 224.3743 13.27952281821511"}}, "geometry": {"type": "Point", "coordinates": [16.25557561080881, 2.720218895836738]}}, {"type": "Feature", "properties": {"norad_id": 19223, "name": "NOVA 2", "group": "nnss", "lat": -13.352872857825126, "lon": 78.27943138749913, "alt_km": 1163.463470495316, "timestamp": "2025-12-04T13:52:00.711322+00:00", "meta": {"OBJECT_NAME": "NOVA 2", "OBJECT_ID": "1988-052A", "EPOCH": "2025-12-04T06:56:31.263936", "MEAN_MOTION": 13.22934462, "ECCENTRICITY": 0.00312607, "INCLINATION": 89.9873, "RA_OF_ASC_NODE": 78.2828, "ARG_OF_PERICENTER": 39.6387, "MEAN_ANOMALY": 14.0315, "EPHEMERIS_TYPE": 0, "CLASSIFICATION_TYPE": "U", "NORAD_CAT_ID": 19223, "ELEMENT_SET_NO": 999, "REV_AT_EPOCH": 80836, "BSTAR": 0.00018297762, "MEAN_MOTION_DOT": 8.6e-07, "MEAN_MOTION_DDOT": 0}, "tle": {"line1": "1 19223U 88052A   25338.28925074  .00000086  00000+0  18298-3 0  9992", "line2": "2 19223  89.9873  78.2828 0031260  39.6387  14.0315 13.22934462808361"}}, "geometry": {"type": "Point", "coordinates": [78.27943138749913, -13.352872857825126]}}, {"type": "Feature", "properties": {"norad_id": 19419, "name": "OSCAR 25", "group": "nnss", "lat": -24.69642006953894, "lon": -159.79918366318597, "alt_km": 1074.7575562404963, "timestamp": "2025-12-04T13:52:00.711332+00:00", "meta": {"OBJECT_NAME": "OSCAR 25", "OBJECT_ID": "1988-074A", "EPOCH": "2025-12-04T02:15:01.619136", "MEAN_MOTION": 13.4262086, "ECCENTRICITY": 0.00942214, "INCLINATION": 90.0354, "RA_OF_ASC_NODE": 20.2154, "ARG_OF_PERICENTER": 270.9634, "MEAN_ANOMALY": 116.5152, "EPHEMERIS_TYPE": 0, "CLASSIFICATION_TYPE": "U", "NORAD_CAT_ID": 19419, "ELEMENT_SET_NO": 999, "REV_AT_EPOCH": 82524, "BSTAR": 0.00028670284, "MEAN_MOTION_DOT": 1.75e-06, "MEAN_MOTION_DDOT": 0}, "tle": {"line1": "1 19419U 88074A   25338.09376874  .00000175  00000+0  28670-3 0  9994", "line2": "2 19419  90.0354  20.2154 0094221 270.9634 116.5152 13.42620860825244"}}, "geometry": {"type": "Point", "coordinates": [-159.79918366318597, -24.69642006953894]}}, {"type": "Feature", "properties": {"norad_id": 19420, "name": "OSCAR 31", "group": "nnss", "lat": 89.65545200324962, "lon": -153.24927238616593, "alt_km": 1160.8807858768669, "timestamp": "2025-12-04T13:52:00.711342+00:00", "meta": {"OBJECT_NAME": "OSCAR 31", "OBJECT_ID": "1988-074B", "EPOCH": "2025-12-04T04:48:49.436352", "MEAN_MOTION": 13.42582601, "ECCENTRICITY": 0.009247, "INCLINATION": 90.0371, "RA_OF_ASC_NODE": 20.5643, "ARG_OF_PERICENTER": 264.7621, "MEAN_ANOMALY": 163.5934, "EPHEMERIS_TYPE": 0, "CLASSIFICATION_TYPE": "U", "NORAD_CAT_ID": 19420, "ELEMENT_SET_NO": 999, "REV_AT_EPOCH": 82536, "BSTAR": 0.00026349955, "MEAN_MOTION_DOT": 1.61e-06, "MEAN_MOTION_DDOT": 0}, "tle": {"line1": "1 19420U 88074B   25338.20057218  .00000161  00000+0  26350-3 0  9995", "line2": "2 19420  90.0371  20.5643 0092470 264.7621 163.5934 13.42582601825365"}}, "geometry": {"type": "Point", "coordinates": [-153.24927238616593, 89.65545200324962]}}]}